{"type":"Feature","properties":{"MUN":"BEACH HAVEN BORO","COUNTY":"OCEAN","MUN_LABEL":"Beach Haven Borough","MUN_TYPE":"Borough","NAME":"Beach Haven Borough","GNIS_NAME":"Borough of Beach Haven"},"geometry":{"type":"Polygon","coordinates":[[[-74.2296533,39.56959],[-74.2296961,39.569513],[-74.2297481,39.5694496],[-74.2298039,39.5693687],[-74.229835,39.569283],[-74.22986,39.5692019],[-74.2298849,39.5691162],[-74.2299038,39.5690543],[-74.2301145,39.568803],[-74.2301988,39.568695],[-74.2303619,39.5683928],[-74.2305736,39.5679361],[-74.2306298,39.567867],[-74.2308882,39.5675776],[-74.2312003,39.5671346],[-74.2315268,39.5666318],[-74.2316073,39.5664938],[-74.2318782,39.5661255],[-74.2319287,39.566065],[-74.2320164,39.5657941],[-74.2320908,39.5656465],[-74.2321776,39.565518],[-74.2324251,39.5652135],[-74.2330691,39.5642855],[-74.2332845,39.5639903],[-74.2333547,39.5639277],[-74.2335515,39.5637814],[-74.2340784,39.5628769],[-74.2341771,39.5628008],[-74.2342082,39.5627341],[-74.2342394,39.5626389],[-74.2343197,39.5625486],[-74.2343623,39.5625112],[-74.2349125,39.561854],[-74.2350121,39.5617582],[-74.235191,39.5614738],[-74.235397,39.5610999],[-74.2354219,39.5610744],[-74.2354716,39.5610425],[-74.2356073,39.5609944],[-74.2356113,39.5609932],[-74.2356414,39.5609757],[-74.2356559,39.5609645],[-74.2356725,39.5609406],[-74.2357755,39.5607664],[-74.2358025,39.5607425],[-74.2358895,39.5606915],[-74.2359144,39.5606675],[-74.235932,39.5606452],[-74.2359466,39.560618],[-74.2360765,39.5604151],[-74.2361595,39.5603289],[-74.2362511,39.5601595],[-74.2362548,39.560135],[-74.236445,39.5599608],[-74.2368672,39.5595577],[-74.2368875,39.5595383],[-74.2368883,39.5595371],[-74.237249,39.5591859],[-74.2379383,39.5583587],[-74.2383996,39.5577293],[-74.2385686,39.5575761],[-74.2385727,39.5575761],[-74.2385976,39.5575618],[-74.2386245,39.5575379],[-74.2387559,39.5574286],[-74.2391964,39.5569499],[-74.239221,39.5569312],[-74.2397322,39.5564636],[-74.2399233,39.5562144],[-74.2401072,39.5559477],[-74.2406185,39.5554544],[-74.2406311,39.5554161],[-74.2406271,39.5553841],[-74.2406324,39.5553345],[-74.2406439,39.5553233],[-74.2406718,39.5552962],[-74.2406967,39.5552818],[-74.240735,39.5552739],[-74.2407432,39.5552739],[-74.2407866,39.555274],[-74.2408239,39.5552629],[-74.2408798,39.5552358],[-74.2409523,39.5551736],[-74.2410125,39.5551097],[-74.2411196,39.5549484],[-74.2413229,39.5547408],[-74.2415344,39.5545493],[-74.2416786,39.5543977],[-74.2417015,39.5543609],[-74.2417472,39.5542938],[-74.2418446,39.5542076],[-74.2419648,39.5541247],[-74.2420634,39.5540161],[-74.242133,39.5539043],[-74.2421714,39.5538628],[-74.2422005,39.5538341],[-74.2423651,39.5537272],[-74.2425019,39.5536219],[-74.2425984,39.5535278],[-74.2426422,39.5534335],[-74.2428227,39.5532307],[-74.2430199,39.5529855],[-74.2431123,39.5529205],[-74.2432051,39.5528166],[-74.2432724,39.552534],[-74.2433084,39.5523918],[-74.2433183,39.5523752],[-74.2433685,39.5523439],[-74.2434154,39.5523156],[-74.2435761,39.5523844],[-74.2436421,39.5524133],[-74.2437743,39.5524456],[-74.2437908,39.5524456],[-74.2438735,39.5524266],[-74.2439273,39.5524107],[-74.243977,39.5523885],[-74.2440722,39.5523407],[-74.2441261,39.552312],[-74.2441841,39.5522641],[-74.2442754,39.5521811],[-74.2444992,39.5520184],[-74.2448533,39.5518208],[-74.2449279,39.5517698],[-74.2451226,39.5516358],[-74.2451723,39.5516103],[-74.245222,39.5515976],[-74.2452593,39.5515721],[-74.2453381,39.5514859],[-74.2453962,39.5514252],[-74.2454502,39.5513486],[-74.2455705,39.5512368],[-74.2458691,39.5509687],[-74.2460846,39.5508124],[-74.246514,39.5503749],[-74.2467632,39.5500491],[-74.2469668,39.5497584],[-74.2469668,39.5497392],[-74.2469668,39.5497379],[-74.2470677,39.5496904],[-74.2471673,39.5497364],[-74.2472539,39.5497846],[-74.2473283,39.5497847],[-74.2473407,39.5497848],[-74.2474152,39.5497689],[-74.2474772,39.5497499],[-74.2475269,39.5497276],[-74.2476015,39.5496893],[-74.2478791,39.5494884],[-74.2483062,39.5491213],[-74.2488113,39.5485976],[-74.2489066,39.5485146],[-74.2492937,39.5480691],[-74.2495053,39.547828],[-74.2499281,39.5472177],[-74.2499344,39.5471777],[-74.2499345,39.5471553],[-74.2500015,39.547085],[-74.2500051,39.5470836],[-74.2503322,39.5472194],[-74.2503965,39.5472461],[-74.2510508,39.5475177],[-74.2511005,39.5475383],[-74.251288,39.5476162],[-74.2513413,39.5476383],[-74.2516486,39.5477658],[-74.2517486,39.5478073],[-74.2520607,39.5479369],[-74.2520955,39.5479513],[-74.2522656,39.5480219],[-74.252374,39.5480669],[-74.2524369,39.548093],[-74.2526614,39.5481862],[-74.2529238,39.5482952],[-74.2529708,39.5483146],[-74.253127,39.5483795],[-74.2532363,39.5484245],[-74.2534772,39.5485238],[-74.25373,39.548628],[-74.2539839,39.5487327],[-74.2542256,39.5488323],[-74.2544727,39.5489341],[-74.2547225,39.5490371],[-74.2548341,39.5490832],[-74.254908,39.5491137],[-74.2550291,39.5491637],[-74.2557563,39.549463],[-74.2560248,39.5495752],[-74.2561927,39.5496455],[-74.2614657,39.5518526],[-74.2613447,39.5520107],[-74.2612019,39.5521981],[-74.26106,39.5523858],[-74.260919,39.5525739],[-74.2607788,39.5527624],[-74.2606396,39.5529512],[-74.2605012,39.5531404],[-74.2603637,39.55333],[-74.2602272,39.5535199],[-74.2600915,39.5537101],[-74.2599567,39.5539007],[-74.2598228,39.5540917],[-74.2596897,39.554283],[-74.2595576,39.5544747],[-74.2594264,39.5546668],[-74.259296,39.5548592],[-74.2591666,39.5550519],[-74.2587609,39.555658],[-74.2586369,39.5558445],[-74.2585261,39.5560122],[-74.2584139,39.5561835],[-74.2583094,39.5563447],[-74.2582107,39.5564986],[-74.2581171,39.5566466],[-74.2580219,39.5567991],[-74.2579311,39.5569472],[-74.2578441,39.5570914],[-74.2577606,39.5572323],[-74.2576804,39.5573705],[-74.2576032,39.5575062],[-74.257529,39.5576397],[-74.2574575,39.5577711],[-74.2573903,39.5578979],[-74.2573216,39.5580308],[-74.2572507,39.5581711],[-74.2571762,39.5583216],[-74.2571099,39.5584578],[-74.2570368,39.5586098],[-74.2568069,39.5590936],[-74.2567277,39.5592593],[-74.256513,39.5597068],[-74.2563354,39.5600788],[-74.2561745,39.5604181],[-74.256026,39.5607333],[-74.2558841,39.5610373],[-74.2557499,39.5613275],[-74.2556221,39.5616069],[-74.2554998,39.5618771],[-74.2553795,39.5621467],[-74.2552638,39.5624092],[-74.2551525,39.5626657],[-74.2550451,39.5629168],[-74.2549415,39.5631634],[-74.2548414,39.5634056],[-74.2547447,39.5636439],[-74.2546512,39.5638787],[-74.2545951,39.5640194],[-74.2544399,39.5644048],[-74.2543935,39.5645224],[-74.2543527,39.5646282],[-74.2543081,39.5647476],[-74.254268,39.5648597],[-74.2542316,39.5649664],[-74.2541986,39.5650688],[-74.2541544,39.5652105],[-74.254126,39.5653034],[-74.2541008,39.5653886],[-74.2540789,39.5654661],[-74.2540586,39.5655422],[-74.2540408,39.5656143],[-74.254025,39.5656834],[-74.2540113,39.56575],[-74.2539993,39.5658151],[-74.2539882,39.5658821],[-74.2539778,39.5659512],[-74.2539683,39.5660229],[-74.2539595,39.5660971],[-74.2539513,39.5661747],[-74.2539437,39.5662566],[-74.2539365,39.5663442],[-74.2539301,39.5664368],[-74.2539252,39.5665308],[-74.2539217,39.5666263],[-74.2539197,39.5667234],[-74.2539191,39.566822],[-74.2539199,39.5669224],[-74.2539222,39.5670245],[-74.2539259,39.5671286],[-74.2539311,39.5672327],[-74.2539376,39.5673358],[-74.2539455,39.5674379],[-74.2539548,39.5675389],[-74.2539656,39.5676388],[-74.2539777,39.5677377],[-74.2539912,39.5678356],[-74.2540061,39.5679323],[-74.2540183,39.5680053],[-74.254031,39.5680766],[-74.2540441,39.5681463],[-74.2540577,39.5682145],[-74.2540718,39.5682814],[-74.2540865,39.568347],[-74.2541017,39.5684114],[-74.2541175,39.5684747],[-74.254136,39.5685461],[-74.2541529,39.5686092],[-74.2541691,39.5686674],[-74.254185,39.568722],[-74.2542011,39.5687744],[-74.2542172,39.5688245],[-74.2542335,39.5688726],[-74.25425,39.568919],[-74.254268,39.5689669],[-74.2542866,39.5690147],[-74.254306,39.5690625],[-74.254326,39.5691101],[-74.2543468,39.5691577],[-74.2543682,39.5692051],[-74.2543903,39.5692524],[-74.2544131,39.5692995],[-74.2544347,39.5693425],[-74.2544578,39.5693869],[-74.2544826,39.5694328],[-74.2545093,39.5694807],[-74.2545376,39.5695302],[-74.2545687,39.5695834],[-74.2546454,39.569711],[-74.2546902,39.5697836],[-74.2547374,39.5698576],[-74.254787,39.5699333],[-74.2548394,39.5700112],[-74.2548946,39.5700913],[-74.2549532,39.5701745],[-74.2550158,39.5702617],[-74.2550836,39.5703545],[-74.255145,39.5704375],[-74.255198,39.5705083],[-74.2552472,39.570573],[-74.2552937,39.570633],[-74.2553391,39.5706905],[-74.2553832,39.5707451],[-74.2554263,39.5707972],[-74.2554688,39.5708473],[-74.2555162,39.5709017],[-74.2555647,39.5709562],[-74.2556143,39.5710108],[-74.2556651,39.5710655],[-74.2557171,39.5711203],[-74.2557702,39.5711751],[-74.2558244,39.57123],[-74.2558798,39.5712851],[-74.2559333,39.5713371],[-74.2559887,39.5713899],[-74.2560461,39.5714434],[-74.2561057,39.5714978],[-74.2561675,39.5715532],[-74.2562319,39.57161],[-74.2562991,39.5716682],[-74.2563697,39.5717285],[-74.2564274,39.571777],[-74.2564851,39.5718249],[-74.2565428,39.5718721],[-74.2566005,39.5719185],[-74.2566581,39.5719643],[-74.2567158,39.5720094],[-74.2567734,39.5720537],[-74.2568311,39.5720974],[-74.2569212,39.5721643],[-74.2570199,39.5722354],[-74.2571297,39.5723127],[-74.2572646,39.5724062],[-74.2573366,39.5724556],[-74.2574101,39.5725051],[-74.2574849,39.572555],[-74.2575611,39.5726052],[-74.2576389,39.5726557],[-74.2577183,39.5727067],[-74.2577994,39.5727582],[-74.2578823,39.5728102],[-74.2579668,39.5728626],[-74.2580534,39.5729158],[-74.2582336,39.5730248],[-74.2584248,39.5731384],[-74.2586306,39.5732586],[-74.2588098,39.5733618],[-74.2589838,39.5734603],[-74.2591535,39.5735548],[-74.2593195,39.5736455],[-74.2594826,39.5737329],[-74.259643,39.5738171],[-74.259801,39.5738982],[-74.259957,39.5739765],[-74.2600206,39.5740077],[-74.2600872,39.5740397],[-74.2601572,39.5740726],[-74.2602316,39.5741069],[-74.2603103,39.5741427],[-74.2603975,39.5741817],[-74.2607478,39.5743365],[-74.2608988,39.5744041],[-74.2609808,39.5744415],[-74.261057,39.5744769],[-74.2611289,39.574511],[-74.2611972,39.5745442],[-74.2613527,39.574621],[-74.2614994,39.5746947],[-74.2616391,39.5747661],[-74.2617727,39.5748357],[-74.2618733,39.5748889],[-74.2619729,39.5749424],[-74.2620717,39.5749961],[-74.2621695,39.57505],[-74.2622665,39.5751041],[-74.2623625,39.5751584],[-74.2624576,39.575213],[-74.2625518,39.5752677],[-74.2626401,39.5753197],[-74.2627285,39.5753724],[-74.2628172,39.5754259],[-74.2629061,39.5754803],[-74.2629951,39.5755354],[-74.2630844,39.5755913],[-74.263174,39.575648],[-74.2632638,39.5757055],[-74.2633888,39.5757865],[-74.2635043,39.5758623],[-74.2636128,39.5759345],[-74.2637156,39.5760039],[-74.2638143,39.5760717],[-74.2639087,39.5761379],[-74.2639996,39.5762027],[-74.2640872,39.5762665],[-74.2641765,39.5763326],[-74.2642566,39.5763926],[-74.2643307,39.576449],[-74.2644002,39.5765027],[-74.2644666,39.5765549],[-74.2645297,39.5766055],[-74.2645899,39.5766549],[-74.2646477,39.5767033],[-74.2647323,39.576776],[-74.2648144,39.5768482],[-74.2648938,39.57692],[-74.2649707,39.5769914],[-74.2650452,39.5770625],[-74.2651173,39.5771332],[-74.265187,39.5772038],[-74.2652543,39.5772741],[-74.2653087,39.5773325],[-74.2653629,39.5773923],[-74.2654169,39.5774533],[-74.2654707,39.5775158],[-74.2655244,39.5775795],[-74.2655779,39.5776447],[-74.2656313,39.5777112],[-74.2656846,39.5777792],[-74.2657328,39.5778424],[-74.2657806,39.5779068],[-74.265828,39.5779726],[-74.2658751,39.5780398],[-74.2659218,39.5781085],[-74.2659682,39.5781787],[-74.2660144,39.5782504],[-74.2660604,39.5783238],[-74.2661062,39.5783987],[-74.2661519,39.5784756],[-74.2661976,39.5785544],[-74.2662435,39.5786354],[-74.2662896,39.5787187],[-74.2663361,39.5788048],[-74.2663832,39.5788939],[-74.2664312,39.5789865],[-74.2664807,39.5790835],[-74.2665183,39.5791593],[-74.2665513,39.5792281],[-74.2665803,39.5792917],[-74.2665985,39.5793334],[-74.2666164,39.579376],[-74.266634,39.5794195],[-74.2666514,39.5794639],[-74.2666685,39.5795094],[-74.2666854,39.579556],[-74.2667021,39.5796038],[-74.2667187,39.579653],[-74.2667512,39.5797543],[-74.2667842,39.5798637],[-74.2668185,39.5799839],[-74.2668577,39.5801274],[-74.2668868,39.5802387],[-74.266914,39.5803498],[-74.2669394,39.5804608],[-74.2669629,39.5805716],[-74.2669846,39.5806822],[-74.2670045,39.5807924],[-74.2670225,39.5809022],[-74.2670386,39.5810116],[-74.2670503,39.5811003],[-74.2670609,39.5811906],[-74.2670705,39.5812826],[-74.2670789,39.5813765],[-74.2670864,39.5814724],[-74.2670928,39.5815705],[-74.2670982,39.5816709],[-74.2671025,39.5817741],[-74.2671051,39.5818607],[-74.2671064,39.5819508],[-74.2671065,39.5820451],[-74.2671053,39.582145],[-74.267103,39.5822466],[-74.2670996,39.5823587],[-74.267095,39.5824807],[-74.2670871,39.5826711],[-74.2670794,39.582836],[-74.2670703,39.5830009],[-74.2670597,39.5831657],[-74.2670476,39.5833304],[-74.267034,39.5834951],[-74.2670189,39.5836597],[-74.2670024,39.5838243],[-74.2669843,39.5839888],[-74.2669648,39.5841532],[-74.2669438,39.5843176],[-74.2669213,39.5844819],[-74.2668973,39.5846462],[-74.2668718,39.5848104],[-74.2668449,39.5849745],[-74.2668164,39.5851386],[-74.2667865,39.5853026],[-74.2296533,39.56959]]]}}
